{"type":"FeatureCollection","features":[{"type":"Feature","geometry":{"type":"Polygon","coordinates":[[[8.274,4.855],[8.23,4.931],[8.126,4.982],[8.098,5.043],[8.099,5.107],[8.07,5.136],[8.065,5.199],[8.017,5.247],[7.993,5.207],[7.944,5.245],[7.892,5.317],[7.88,5.367],[7.986,5.371],[7.908,5.536],[7.915,5.655],[7.89,5.685],[7.932,5.822],[7.988,5.885],[7.986,5.982],[8.053,5.986],[8.065,5.944],[8.114,5.938],[8.215,6.012],[8.287,6.017],[8.302,6.108],[8.418,6.261],[8.392,6.307],[8.404,6.366],[8.457,6.428],[8.34,6.575],[8.295,6.679],[8.361,6.693],[8.393,6.742],[8.469,6.746],[8.621,6.781],[8.669,6.87],[8.704,6.896],[8.839,6.869],[8.974,6.789],[8.995,6.754],[8.97,6.704],[9.027,6.651],[9.07,6.642],[9.136,6.68],[9.3,6.72],[9.368,6.629],[9.471,6.525],[9.467,6.401],[9.431,6.325],[9.363,6.326],[9.223,6.151],[8.963,5.907],[8.868,5.846],[8.851,5.722],[8.922,5.595],[8.86,5.497],[8.831,5.331],[8.842,5.296],[8.81,5.152],[8.747,5.098],[8.645,4.909],[8.604,4.869],[8.628,4.822],[8.545,4.803],[8.522,4.734],[8.481,4.689],[8.418,4.726],[8.274,4.855]]]},"properties":{"shapeName":"Cross River","shapeID":"27671186B81745654473385"}},{"type":"Feature","geometry":{"type":"Polygon","coordinates":[[[6.981,8.444],[6.941,8.459],[6.828,8.458],[6.785,8.458],[6.78,8.58],[6.788,9.27],[7.015,9.269],[7.22,9.114],[7.379,9.336],[7.509,9.355],[7.542,9.387],[7.647,9.409],[7.724,9.329],[7.668,9.304],[7.589,9.129],[7.592,8.835],[7.496,8.654],[7.418,8.57],[7.365,8.488],[7.27,8.464],[7.08,8.443],[6.981,8.444]]]},"properties":{"shapeName":"Abuja Federal Capital Territory","shapeID":"27671186B76269877687363"}},{"type":"Feature","geometry":{"type":"Polygon","coordinates":[[[4.483,6.326],[4.36,6.368],[4.354,6.451],[4.26,6.444],[4.164,6.507],[4.233,6.547],[4.222,6.596],[4.178,6.604],[4.101,6.558],[4.054,6.615],[4.091,6.68],[3.983,6.683],[3.461,6.683],[3.452,6.641],[3.393,6.638],[3.272,6.698],[3.238,6.62],[3.193,6.578],[3.175,6.515],[3.092,6.499],[2.886,6.511],[2.884,6.474],[2.832,6.445],[2.794,6.462],[2.705,6.46],[2.7,6.508],[2.743,6.566],[2.728,6.624],[2.778,6.692],[2.787,6.75],[2.729,6.772],[2.742,6.843],[2.733,6.925],[2.703,6.989],[2.737,7.024],[2.75,7.094],[2.717,7.599],[2.743,7.783],[2.712,7.852],[2.794,7.942],[2.907,7.913],[2.881,7.857],[2.886,7.769],[2.961,7.744],[2.982,7.807],[3.025,7.79],[3.001,7.662],[2.973,7.612],[3.007,7.556],[3.064,7.52],[3.083,7.439],[3.155,7.378],[3.257,7.363],[3.307,7.314],[3.386,7.401],[3.396,7.459],[3.446,7.494],[3.498,7.395],[3.541,7.44],[3.707,7.447],[3.718,7.301],[3.762,7.301],[3.764,7.23],[3.794,7.139],[3.731,7.081],[3.939,7.084],[4.046,7.138],[4.088,7.133],[4.171,7.171],[4.198,7.049],[4.298,7.091],[4.369,7.059],[4.376,6.995],[4.489,6.992],[4.516,7.023],[4.61,7.031],[4.564,6.996],[4.547,6.841],[4.422,6.762],[4.389,6.713],[4.383,6.635],[4.454,6.607],[4.491,6.509],[4.567,6.637],[4.601,6.609],[4.588,6.532],[4.535,6.408],[4.598,6.366],[4.572,6.297],[4.483,6.326]]]},"properties":{"shapeName":"Ogun","shapeID":"27671186B83907961412659"}},{"type":"Feature","geometry":{"type":"Polygon","coordinates":[[[4.088,7.133],[4.046,7.138],[3.939,7.084],[3.731,7.081],[3.794,7.139],[3.764,7.23],[3.762,7.301],[3.718,7.301],[3.707,7.447],[3.541,7.44],[3.498,7.395],[3.446,7.494],[3.396,7.459],[3.386,7.401],[3.307,7.314],[3.257,7.363],[3.155,7.378],[3.083,7.439],[3.064,7.52],[3.007,7.556],[2.973,7.612],[3.001,7.662],[3.025,7.79],[2.982,7.807],[2.961,7.744],[2.886,7.769],[2.881,7.857],[2.907,7.913],[2.794,7.942],[2.712,7.852],[2.693,7.906],[2.727,8.108],[2.754,8.207],[2.71,8.326],[2.721,8.424],[2.752,8.462],[2.756,8.575],[2.802,8.61],[2.921,8.612],[3.014,8.71],[3.104,8.75],[3.164,8.809],[3.237,8.783],[3.388,8.842],[3.525,8.929],[3.6,8.957],[3.596,8.999],[3.691,8.997],[3.743,9.047],[3.754,9.121],[3.826,9.182],[3.921,9.173],[3.972,9.078],[4.012,9.035],[4.21,8.97],[4.316,8.998],[4.321,8.942],[4.258,8.901],[4.195,8.816],[4.209,8.681],[4.392,8.304],[4.48,8.211],[4.506,8.092],[4.569,8.055],[4.557,7.981],[4.442,7.929],[4.433,7.892],[4.36,7.883],[4.328,7.935],[4.276,7.971],[4.191,7.91],[4.203,7.869],[4.147,7.85],[4.099,7.864],[4.076,7.825],[4.069,7.666],[4.154,7.569],[4.134,7.368],[4.111,7.327],[4.125,7.258],[4.094,7.228],[4.088,7.133]]]},"properties":{"shapeName":"Oyo","shapeID":"27671186B56513237316251"}},{"type":"Feature","geometry":{"type":"Polygon","coordinates":[[[4.126,13.25],[4.126,13.468],[4.232,13.499],[4.288,13.541],[4.394,13.653],[4.445,13.675],[4.637,13.723],[4.708,13.759],[4.874,13.781],[4.909,13.746],[5.006,13.736],[5.078,13.752],[5.205,13.736],[5.281,13.756],[5.35,13.834],[5.53,13.886],[5.632,13.836],[5.825,13.764],[6.076,13.682],[6.156,13.645],[6.296,13.679],[6.403,13.611],[6.495,13.568],[6.559,13.478],[6.713,13.311],[6.793,13.132],[6.688,13.133],[6.581,13.023],[6.529,13.053],[6.52,13.122],[6.463,13.117],[6.359,13.137],[6.327,13.18],[6.258,13.16],[6.191,13.101],[6.047,13.031],[6.055,12.967],[6.006,12.919],[6.034,12.784],[5.962,12.755],[5.883,12.82],[5.813,12.84],[5.734,12.827],[5.635,12.883],[5.588,12.804],[5.649,12.769],[5.694,12.689],[5.677,12.632],[5.723,12.621],[5.717,12.487],[5.773,12.383],[5.751,12.324],[5.692,12.322],[5.653,12.348],[5.567,12.352],[5.541,12.273],[5.47,12.253],[5.439,12.343],[5.385,12.324],[5.312,12.356],[5.16,12.316],[5.128,12.286],[4.953,12.314],[4.95,12.231],[4.875,12.23],[4.867,11.933],[4.944,11.881],[4.92,11.79],[4.941,11.731],[4.899,11.709],[4.803,11.758],[4.667,11.668],[4.546,11.634],[4.523,11.53],[4.419,11.614],[4.436,11.711],[4.549,11.796],[4.551,11.892],[4.588,12.039],[4.552,12.098],[4.552,12.284],[4.593,12.347],[4.586,12.389],[4.63,12.433],[4.754,12.364],[4.75,12.421],[4.803,12.485],[4.795,12.575],[4.732,12.672],[4.77,12.789],[4.807,12.819],[4.661,12.959],[4.725,13.049],[4.683,13.079],[4.623,13.07],[4.513,13.137],[4.468,13.181],[4.374,13.201],[4.3,13.26],[4.214,13.264],[4.126,13.25]]]},"properties":{"shapeName":"Sokoto","shapeID":"27671186B99510750195830"}},{"type":"Feature","geometry":{"type":"Polygon","coordinates":[[[4.941,11.731],[4.92,11.79],[4.944,11.881],[4.867,11.933],[4.875,12.23],[4.95,12.231],[4.953,12.314],[5.128,12.286],[5.16,12.316],[5.312,12.356],[5.385,12.324],[5.439,12.343],[5.47,12.253],[5.541,12.273],[5.567,12.352],[5.653,12.348],[5.692,12.322],[5.751,12.324],[5.773,12.383],[5.717,12.487],[5.723,12.621],[5.677,12.632],[5.694,12.689],[5.649,12.769],[5.588,12.804],[5.635,12.883],[5.734,12.827],[5.813,12.84],[5.883,12.82],[5.962,12.755],[6.034,12.784],[6.006,12.919],[6.055,12.967],[6.047,13.031],[6.191,13.101],[6.258,13.16],[6.327,13.18],[6.359,13.137],[6.463,13.117],[6.52,13.122],[6.529,13.053],[6.581,13.023],[6.688,13.133],[6.793,13.132],[6.806,13.108],[6.933,12.997],[7.051,12.995],[7.066,12.89],[7.061,12.74],[6.989,12.673],[7.044,12.659],[7.051,12.54],[7.093,12.283],[7.15,12.232],[7.157,12.185],[7.128,12.124],[7.149,12.033],[7.208,11.988],[7.226,11.914],[7.141,11.911],[7.142,11.849],[7.043,11.79],[7.017,11.816],[6.91,11.786],[6.855,11.642],[6.854,11.595],[6.904,11.553],[6.907,11.475],[6.889,11.384],[6.771,11.32],[6.767,11.272],[6.703,11.239],[6.689,11.204],[6.687,11.092],[6.657,11.052],[6.577,11.022],[6.533,11.048],[6.437,11.008],[6.392,11.034],[6.337,11.021],[6.267,10.966],[6.163,11.043],[6.046,11.054],[6.016,11.138],[6.106,11.183],[6.136,11.295],[6.191,11.334],[6.204,11.384],[6.08,11.388],[6.01,11.463],[5.934,11.437],[5.827,11.444],[5.819,11.648],[5.78,11.684],[5.705,11.688],[5.67,11.661],[5.58,11.675],[5.497,11.656],[5.44,11.709],[5.376,11.71],[5.295,11.774],[5.052,11.72],[5,11.748],[4.941,11.731]]]},"properties":{"shapeName":"Zamfara","shapeID":"27671186B21163522287660"}},{"type":"Feature","geometry":{"type":"Polygon","coordinates":[[[2.705,6.46],[2.794,6.462],[2.832,6.445],[2.884,6.474],[2.886,6.511],[3.092,6.499],[3.175,6.515],[3.193,6.578],[3.238,6.62],[3.272,6.698],[3.393,6.638],[3.452,6.641],[3.461,6.683],[3.983,6.683],[4.091,6.68],[4.054,6.615],[4.101,6.558],[4.178,6.604],[4.222,6.596],[4.233,6.547],[4.164,6.507],[4.26,6.444],[4.354,6.451],[4.36,6.368],[4.186,6.389],[3.896,6.434],[3.715,6.424],[3.43,6.422],[3.402,6.399],[3.258,6.403],[2.819,6.39],[2.7,6.375],[2.705,6.46]]]},"properties":{"shapeName":"Lagos","shapeID":"27671186B19119389308001"}},{"type":"Feature","geometry":{"type":"Polygon","coordinates":[[[7.88,5.367],[7.892,5.317],[7.944,5.245],[7.993,5.207],[8.017,5.247],[8.065,5.199],[8.07,5.136],[8.099,5.107],[8.098,5.043],[8.126,4.982],[8.23,4.931],[8.274,4.855],[8.31,4.804],[8.344,4.607],[8.293,4.546],[8.027,4.543],[7.84,4.524],[7.667,4.495],[7.614,4.469],[7.58,4.509],[7.528,4.55],[7.545,4.569],[7.547,4.585],[7.523,4.631],[7.535,4.7],[7.532,4.768],[7.495,4.828],[7.481,4.933],[7.46,4.978],[7.506,5.013],[7.547,5.088],[7.528,5.156],[7.543,5.258],[7.572,5.324],[7.625,5.365],[7.639,5.43],[7.701,5.436],[7.711,5.512],[7.749,5.516],[7.789,5.444],[7.865,5.418],[7.88,5.367]]]},"properties":{"shapeName":"Akwa Ibom","shapeID":"27671186B25346211366833"}},{"type":"Feature","geometry":{"type":"Polygon","coordinates":[[[5.448,5.134],[5.465,5.098],[5.585,5.055],[5.633,5.018],[5.71,5.024],[5.791,5.086],[5.869,5.071],[5.946,5.164],[6.005,5.104],[6.062,5.103],[6.202,5.179],[6.213,5.239],[6.293,5.239],[6.287,5.282],[6.348,5.32],[6.409,5.305],[6.503,5.339],[6.485,5.379],[6.562,5.379],[6.563,5.32],[6.531,5.285],[6.553,5.19],[6.493,5.163],[6.41,4.991],[6.441,4.943],[6.398,4.864],[6.446,4.73],[6.478,4.714],[6.527,4.753],[6.607,4.746],[6.512,4.643],[6.56,4.541],[6.513,4.432],[6.512,4.38],[6.549,4.325],[6.088,4.27],[5.977,4.312],[5.7,4.517],[5.542,4.73],[5.444,4.923],[5.442,4.976],[5.375,5.126],[5.448,5.134]]]},"properties":{"shapeName":"Bayelsa","shapeID":"27671186B47021609715037"}},{"type":"Feature","geometry":{"type":"Polygon","coordinates":[[[4.483,6.326],[4.572,6.297],[4.598,6.366],[4.535,6.408],[4.588,6.532],[4.601,6.609],[4.567,6.637],[4.491,6.509],[4.454,6.607],[4.383,6.635],[4.389,6.713],[4.422,6.762],[4.547,6.841],[4.564,6.996],[4.61,7.031],[4.635,7.113],[4.703,7.162],[4.747,7.223],[4.735,7.284],[4.755,7.361],[4.878,7.379],[4.99,7.378],[5.005,7.414],[5.049,7.457],[5.217,7.434],[5.32,7.441],[5.347,7.381],[5.358,7.296],[5.388,7.283],[5.504,7.316],[5.599,7.45],[5.625,7.582],[5.681,7.624],[5.716,7.701],[5.773,7.747],[5.816,7.728],[5.919,7.75],[5.938,7.649],[6.004,7.529],[5.948,7.487],[5.987,7.355],[5.919,7.337],[5.855,7.096],[5.816,7.072],[5.786,6.968],[5.8,6.921],[5.758,6.784],[5.703,6.736],[5.62,6.742],[5.577,6.704],[5.537,6.885],[5.272,6.888],[5.197,6.774],[5.122,6.699],[5.112,6.63],[5.164,6.554],[5.11,6.414],[5.028,6.345],[5.016,6.292],[5.089,6.201],[5.134,6.169],[5.076,6.078],[5.014,5.944],[4.977,5.888],[4.848,6.028],[4.615,6.235],[4.483,6.326]]]},"properties":{"shapeName":"Ondo","shapeID":"27671186B41407594687181"}},{"type":"Feature","geometry":{"type":"Polygon","coordinates":[[[6.485,5.379],[6.503,5.339],[6.409,5.305],[6.348,5.32],[6.287,5.282],[6.293,5.239],[6.213,5.239],[6.202,5.179],[6.062,5.103],[6.005,5.104],[5.946,5.164],[5.869,5.071],[5.791,5.086],[5.71,5.024],[5.633,5.018],[5.585,5.055],[5.465,5.098],[5.448,5.134],[5.353,5.168],[5.32,5.355],[5.355,5.39],[5.26,5.428],[5.208,5.467],[5.157,5.537],[5.17,5.594],[5.121,5.643],[5.068,5.767],[4.977,5.888],[5.014,5.944],[5.076,6.078],[5.134,6.169],[5.217,6.136],[5.235,6.073],[5.268,6.053],[5.249,5.984],[5.276,5.907],[5.359,5.97],[5.327,6.018],[5.513,6.035],[5.537,5.99],[5.669,6.052],[5.795,5.98],[5.921,5.877],[5.906,5.77],[5.925,5.748],[6.04,5.765],[6.218,5.917],[6.257,6.017],[6.196,6.054],[6.134,6.136],[6.088,6.318],[6.127,6.356],[6.213,6.279],[6.282,6.357],[6.413,6.396],[6.523,6.488],[6.669,6.501],[6.713,6.353],[6.723,6.266],[6.769,6.168],[6.755,6.121],[6.705,6.081],[6.725,6.012],[6.674,5.889],[6.639,5.739],[6.602,5.687],[6.621,5.643],[6.585,5.562],[6.531,5.532],[6.525,5.439],[6.485,5.379]]]},"properties":{"shapeName":"Delta","shapeID":"27671186B69086015704361"}},{"type":"Feature","geometry":{"type":"Polygon","coordinates":[[[7.495,4.828],[7.532,4.768],[7.535,4.7],[7.518,4.634],[7.526,4.603],[7.543,4.575],[7.521,4.555],[7.533,4.526],[7.589,4.49],[7.58,4.45],[7.487,4.449],[7.329,4.417],[7.216,4.38],[7.135,4.41],[7.217,4.521],[7.166,4.549],[7.159,4.464],[7.044,4.436],[7.006,4.369],[6.858,4.398],[6.875,4.357],[6.694,4.33],[6.549,4.325],[6.512,4.38],[6.513,4.432],[6.56,4.541],[6.512,4.643],[6.607,4.746],[6.527,4.753],[6.478,4.714],[6.446,4.73],[6.398,4.864],[6.441,4.943],[6.41,4.991],[6.493,5.163],[6.553,5.19],[6.531,5.285],[6.563,5.32],[6.562,5.379],[6.485,5.379],[6.525,5.439],[6.531,5.532],[6.585,5.562],[6.621,5.643],[6.602,5.687],[6.669,5.69],[6.639,5.493],[6.741,5.494],[6.763,5.41],[6.756,5.323],[6.827,5.252],[6.904,5.22],[7.04,5.25],[7.123,5.216],[7.232,5.195],[7.264,5.216],[7.293,5.173],[7.256,5.077],[7.241,4.994],[7.169,4.945],[7.156,4.884],[7.225,4.858],[7.271,4.873],[7.416,4.867],[7.495,4.828]]]},"properties":{"shapeName":"Rivers","shapeID":"27671186B95832466049157"}},{"type":"Feature","geometry":{"type":"Polygon","coordinates":[[[4.569,8.055],[4.506,8.092],[4.48,8.211],[4.392,8.304],[4.209,8.681],[4.195,8.816],[4.258,8.901],[4.321,8.942],[4.316,8.998],[4.21,8.97],[4.012,9.035],[3.972,9.078],[3.921,9.173],[3.826,9.182],[3.754,9.121],[3.743,9.047],[3.691,8.997],[3.596,8.999],[3.6,8.957],[3.525,8.929],[3.388,8.842],[3.237,8.783],[3.164,8.809],[3.104,8.75],[3.014,8.71],[2.921,8.612],[2.802,8.61],[2.756,8.575],[2.743,8.771],[2.795,9.057],[2.905,9.079],[2.987,9.061],[3.095,9.091],[3.166,9.303],[3.167,9.366],[3.142,9.441],[3.171,9.496],[3.286,9.636],[3.353,9.703],[3.331,9.756],[3.367,9.837],[3.471,9.856],[3.525,9.844],[3.609,9.948],[3.676,10.103],[3.684,10.157],[3.731,10.068],[3.799,10.071],[3.864,10.05],[3.949,9.991],[3.935,9.928],[4.002,9.907],[4.022,9.857],[4.153,9.862],[4.171,9.82],[4.282,9.694],[4.351,9.588],[4.444,9.51],[4.501,9.44],[4.61,9.362],[4.639,9.308],[4.738,9.269],[4.752,9.18],[4.785,9.135],[4.828,9.134],[4.997,9.207],[5.159,9.107],[5.209,9.035],[5.323,8.992],[5.37,8.996],[5.54,8.931],[5.642,8.835],[5.728,8.82],[5.796,8.742],[5.928,8.743],[6.033,8.759],[6.209,8.732],[6.125,8.556],[6.111,8.431],[6.041,8.393],[5.912,8.424],[5.783,8.428],[5.643,8.463],[5.524,8.537],[5.397,8.438],[5.322,8.341],[5.357,8.275],[5.418,8.284],[5.419,8.236],[5.458,8.206],[5.537,8.206],[5.537,8.156],[5.498,8.111],[5.387,8.102],[5.332,8.01],[5.196,8.018],[5.142,8.062],[5.058,8.039],[4.995,8.03],[4.927,8.08],[4.854,8.096],[4.819,8.054],[4.721,8.064],[4.666,8.043],[4.622,8.076],[4.569,8.055]]]},"properties":{"shapeName":"Kwara","shapeID":"27671186B2031248555853"}},{"type":"Feature","geometry":{"type":"Polygon","coordinates":[[[6.828,8.458],[6.941,8.459],[6.981,8.444],[6.935,8.301],[6.965,8.265],[7.003,8.167],[6.971,8.03],[6.978,7.986],[6.953,7.918],[6.964,7.879],[7.073,7.943],[7.254,8.015],[7.393,8.044],[7.505,8.047],[7.677,8.014],[7.67,7.885],[7.753,7.744],[7.755,7.648],[7.736,7.599],[7.761,7.452],[7.799,7.401],[7.801,7.293],[7.779,7.209],[7.691,7.192],[7.643,7.158],[7.602,7.091],[7.611,7.027],[7.531,7.032],[7.502,7.069],[7.432,7.102],[7.385,7.052],[7.241,6.971],[7.21,6.904],[7.176,6.896],[7.081,6.8],[6.991,6.785],[6.952,6.808],[6.897,6.792],[6.861,6.753],[6.799,6.68],[6.808,6.58],[6.662,6.558],[6.653,6.634],[6.618,6.705],[6.632,6.769],[6.611,6.822],[6.673,6.936],[6.677,7.034],[6.716,7.136],[6.693,7.216],[6.638,7.294],[6.515,7.267],[6.5,7.327],[6.38,7.398],[6.295,7.499],[6.187,7.439],[6.112,7.449],[6.108,7.491],[6.154,7.522],[6.119,7.591],[6.049,7.58],[6.004,7.529],[5.938,7.649],[5.919,7.75],[5.816,7.728],[5.773,7.747],[5.729,7.828],[5.643,7.829],[5.614,7.866],[5.599,7.952],[5.668,8.002],[5.64,8.054],[5.577,8.071],[5.504,8.024],[5.498,8.111],[5.537,8.156],[5.537,8.206],[5.458,8.206],[5.419,8.236],[5.418,8.284],[5.357,8.275],[5.322,8.341],[5.397,8.438],[5.524,8.537],[5.643,8.463],[5.783,8.428],[5.912,8.424],[6.041,8.393],[6.111,8.431],[6.125,8.556],[6.209,8.732],[6.303,8.728],[6.398,8.629],[6.453,8.448],[6.599,8.324],[6.684,8.213],[6.761,8.273],[6.772,8.335],[6.838,8.397],[6.828,8.458]]]},"properties":{"shapeName":"Kogi","shapeID":"27671186B96047513549152"}},{"type":"Feature","geometry":{"type":"Polygon","coordinates":[[[9.467,6.401],[9.471,6.525],[9.368,6.629],[9.3,6.72],[9.136,6.68],[9.07,6.642],[9.027,6.651],[8.97,6.704],[8.995,6.754],[8.974,6.789],[8.839,6.869],[8.704,6.896],[8.669,6.87],[8.621,6.781],[8.469,6.746],[8.393,6.742],[8.361,6.693],[8.295,6.679],[8.241,6.792],[8.173,6.773],[8.144,6.725],[8.099,6.707],[8.032,6.732],[7.974,6.711],[7.987,6.611],[7.945,6.54],[7.878,6.562],[7.818,6.638],[7.856,6.7],[7.886,6.794],[7.888,6.854],[7.819,6.892],[7.658,6.868],[7.62,6.919],[7.578,6.933],[7.531,7.032],[7.611,7.027],[7.602,7.091],[7.643,7.158],[7.691,7.192],[7.779,7.209],[7.801,7.293],[7.799,7.401],[7.761,7.452],[7.736,7.599],[7.755,7.648],[7.753,7.744],[7.67,7.885],[7.677,8.014],[7.867,7.986],[7.973,7.939],[8.072,7.877],[8.16,7.86],[8.372,7.77],[8.421,7.774],[8.389,7.893],[8.348,7.928],[8.371,8.046],[8.427,8.112],[8.504,8.158],[8.781,8.075],[8.911,8.056],[9.062,8.074],[9.133,7.991],[9.179,7.908],[9.124,7.827],[9.19,7.81],[9.387,7.845],[9.561,7.839],[9.643,7.8],[9.747,7.655],[9.846,7.574],[9.885,7.508],[9.883,7.414],[9.841,7.28],[9.824,7.172],[9.738,7.078],[9.646,6.895],[9.646,6.739],[9.622,6.664],[9.598,6.5],[9.525,6.43],[9.467,6.401]]]},"properties":{"shapeName":"Benue","shapeID":"27671186B36221103315467"}},{"type":"Feature","geometry":{"type":"Polygon","coordinates":[[[11.836,10.034],[11.79,10.039],[11.696,10.188],[11.612,10.22],[11.59,10.283],[11.546,10.301],[11.552,10.369],[11.603,10.427],[11.655,10.456],[11.663,10.497],[11.6,10.534],[11.583,10.594],[11.714,10.634],[11.767,10.706],[11.738,10.823],[11.647,10.834],[11.632,10.857],[11.799,10.938],[11.937,10.948],[12.035,11.044],[12.148,11.046],[12.168,11.079],[12.121,11.14],[12.102,11.237],[12.187,11.302],[12.202,11.357],[12.344,11.479],[12.374,11.55],[12.3,11.609],[12.275,11.694],[12.224,11.633],[12.196,11.658],[12.244,11.809],[12.281,11.995],[12.238,12.09],[12.25,12.213],[12.285,12.266],[12.287,12.425],[12.353,12.46],[12.377,12.52],[12.419,12.524],[12.497,12.665],[12.485,12.802],[12.409,12.86],[12.395,12.916],[12.43,13.073],[12.459,13.066],[12.534,13.207],[12.59,13.258],[12.739,13.326],[12.877,13.486],[13.016,13.534],[13.181,13.538],[13.269,13.645],[13.363,13.708],[13.634,13.708],[14.083,13.083],[14.203,12.538],[14.178,12.481],[14.188,12.406],[14.228,12.362],[14.334,12.374],[14.464,12.361],[14.548,12.281],[14.618,12.186],[14.677,12.16],[14.636,12.091],[14.623,12.031],[14.654,11.956],[14.605,11.869],[14.612,11.825],[14.589,11.692],[14.641,11.647],[14.646,11.576],[14.611,11.499],[14.467,11.416],[14.411,11.404],[14.189,11.244],[14.147,11.236],[14.004,11.283],[13.811,11.052],[13.751,10.914],[13.67,10.945],[13.577,10.948],[13.502,10.911],[13.383,10.878],[13.336,10.908],[13.336,10.8],[13.311,10.713],[13.233,10.558],[13.253,10.54],[13.228,10.443],[13.191,10.41],[13.052,10.464],[12.959,10.548],[12.875,10.574],[12.735,10.576],[12.652,10.439],[12.571,10.482],[12.557,10.395],[12.422,10.371],[12.379,10.35],[12.242,10.319],[12.213,10.281],[12.136,10.237],[12.089,10.143],[12.101,10.074],[12.019,10.067],[11.989,10.038],[11.921,10.025],[11.836,10.034]]]},"properties":{"shapeName":"Borno","shapeID":"27671186B753479316714"}},{"type":"Feature","geometry":{"type":"Polygon","coordinates":[[[6.889,11.384],[6.907,11.475],[6.904,11.553],[6.854,11.595],[6.855,11.642],[6.91,11.786],[7.017,11.816],[7.043,11.79],[7.142,11.849],[7.141,11.911],[7.226,11.914],[7.208,11.988],[7.149,12.033],[7.128,12.124],[7.157,12.185],[7.15,12.232],[7.093,12.283],[7.051,12.54],[7.044,12.659],[6.989,12.673],[7.061,12.74],[7.066,12.89],[7.051,12.995],[7.091,12.995],[7.219,13.126],[7.38,13.1],[7.82,13.352],[8.122,13.304],[8.226,13.224],[8.287,13.198],[8.409,13.088],[8.542,13.075],[8.615,13.022],[8.664,12.943],[8.955,12.856],[9.041,12.846],[8.983,12.807],[8.951,12.738],[8.865,12.669],[8.723,12.67],[8.664,12.726],[8.604,12.737],[8.589,12.809],[8.502,12.834],[8.435,12.815],[8.337,12.836],[8.179,12.811],[8.145,12.721],[8.19,12.624],[8.246,12.594],[8.181,12.562],[8.157,12.44],[8.055,12.417],[7.923,12.337],[7.865,12.281],[7.878,12.253],[7.855,12.147],[7.88,12.044],[7.829,11.969],[7.83,11.922],[7.865,11.873],[7.861,11.762],[7.888,11.707],[7.841,11.633],[7.767,11.629],[7.705,11.592],[7.711,11.549],[7.675,11.483],[7.751,11.371],[7.706,11.31],[7.608,11.272],[7.578,11.315],[7.473,11.376],[7.392,11.375],[7.358,11.264],[7.227,11.279],[7.195,11.258],[7.201,11.153],[7.152,11.129],[7.077,11.195],[6.968,11.245],[7.009,11.294],[7.006,11.362],[6.889,11.384]]]},"properties":{"shapeName":"Katsina","shapeID":"27671186B99661334382691"}},{"type":"Feature","geometry":{"type":"Polygon","coordinates":[[[9.617,8.372],[9.602,8.393],[9.47,8.431],[9.381,8.478],[9.212,8.457],[9.175,8.467],[9.132,8.429],[9.101,8.474],[9.019,8.51],[8.892,8.733],[8.95,8.836],[9.024,8.866],[9.072,8.945],[9.057,9.024],[8.924,9.016],[8.798,9.032],[8.76,9.105],[8.765,9.165],[8.658,9.208],[8.694,9.322],[8.695,9.378],[8.648,9.396],[8.578,9.499],[8.555,9.581],[8.599,9.728],[8.644,9.775],[8.635,9.867],[8.68,10.005],[8.672,10.146],[8.686,10.211],[8.734,10.275],[8.799,10.303],[8.818,10.38],[8.936,10.349],[8.955,10.309],[8.93,10.215],[8.978,10.181],[8.968,10.103],[8.939,10.033],[8.977,9.987],[9.086,10.025],[9.128,10.059],[9.214,10.018],[9.232,9.862],[9.272,9.846],[9.219,9.773],[9.16,9.758],[9.224,9.683],[9.288,9.692],[9.304,9.572],[9.351,9.532],[9.397,9.531],[9.425,9.477],[9.569,9.473],[9.61,9.548],[9.648,9.522],[9.764,9.54],[9.839,9.601],[9.981,9.623],[9.973,9.7],[10.042,9.73],[10.103,9.72],[10.152,9.679],[10.261,9.687],[10.383,9.598],[10.489,9.553],[10.541,9.484],[10.566,9.465],[10.56,9.39],[10.58,9.246],[10.636,9.119],[10.627,9.019],[10.597,8.976],[10.464,8.963],[10.42,8.944],[10.325,8.857],[10.249,8.808],[10.116,8.673],[10.052,8.592],[9.891,8.448],[9.757,8.367],[9.664,8.383],[9.617,8.372]]]},"properties":{"shapeName":"Plateau","shapeID":"27671186B51792679167430"}},{"type":"Feature","geometry":{"type":"Polygon","coordinates":[[[5.134,6.169],[5.089,6.201],[5.016,6.292],[5.028,6.345],[5.11,6.414],[5.164,6.554],[5.112,6.63],[5.122,6.699],[5.197,6.774],[5.272,6.888],[5.537,6.885],[5.577,6.704],[5.62,6.742],[5.703,6.736],[5.758,6.784],[5.8,6.921],[5.786,6.968],[5.816,7.072],[5.855,7.096],[5.919,7.337],[5.987,7.355],[5.948,7.487],[6.004,7.529],[6.049,7.58],[6.119,7.591],[6.154,7.522],[6.108,7.491],[6.112,7.449],[6.187,7.439],[6.295,7.499],[6.38,7.398],[6.5,7.327],[6.515,7.267],[6.638,7.294],[6.693,7.216],[6.716,7.136],[6.677,7.034],[6.673,6.936],[6.611,6.822],[6.632,6.769],[6.618,6.705],[6.653,6.634],[6.662,6.558],[6.669,6.501],[6.523,6.488],[6.413,6.396],[6.282,6.357],[6.213,6.279],[6.127,6.356],[6.088,6.318],[6.134,6.136],[6.196,6.054],[6.257,6.017],[6.218,5.917],[6.04,5.765],[5.925,5.748],[5.906,5.77],[5.921,5.877],[5.795,5.98],[5.669,6.052],[5.537,5.99],[5.513,6.035],[5.327,6.018],[5.359,5.97],[5.276,5.907],[5.249,5.984],[5.268,6.053],[5.235,6.073],[5.217,6.136],[5.134,6.169]]]},"properties":{"shapeName":"Edo","shapeID":"27671186B63712480376187"}},{"type":"Feature","geometry":{"type":"Polygon","coordinates":[[[8.246,12.594],[8.19,12.624],[8.145,12.721],[8.179,12.811],[8.337,12.836],[8.435,12.815],[8.502,12.834],[8.589,12.809],[8.604,12.737],[8.664,12.726],[8.723,12.67],[8.865,12.669],[8.951,12.738],[8.983,12.807],[9.041,12.846],[9.635,12.802],[9.662,12.834],[9.765,12.796],[9.858,12.82],[9.93,12.919],[9.988,12.956],[10.224,13.015],[10.305,12.861],[10.385,12.841],[10.475,12.79],[10.538,12.824],[10.599,12.706],[10.598,12.522],[10.606,12.489],[10.459,12.441],[10.381,12.464],[10.339,12.441],[10.258,12.46],[10.254,12.391],[10.208,12.354],[10.148,12.238],[10.17,12.165],[10.152,12.09],[10.175,12.046],[9.883,11.933],[9.834,11.89],[9.708,11.85],[9.64,11.733],[9.713,11.721],[9.78,11.737],[9.821,11.672],[9.831,11.54],[9.788,11.505],[9.801,11.443],[9.878,11.448],[9.885,11.357],[9.999,11.265],[10.084,11.27],[10.19,11.222],[10.279,11.203],[10.358,11.208],[10.336,11.143],[10.27,11.088],[10.189,11.082],[10.154,11.014],[10.22,10.947],[10.134,10.948],[10.088,10.99],[9.986,10.958],[9.863,11.006],[9.855,11.077],[9.889,11.094],[9.883,11.164],[9.825,11.279],[9.684,11.222],[9.596,11.248],[9.609,11.315],[9.512,11.313],[9.498,11.278],[9.412,11.3],[9.351,11.343],[9.287,11.349],[9.195,11.327],[9.232,11.406],[9.23,11.446],[9.36,11.561],[9.241,11.645],[9.226,11.736],[9.166,11.707],[9.142,11.759],[9.144,11.827],[9.187,11.835],[9.228,12.014],[9.199,12.083],[9.145,12.039],[9.085,12.027],[9.074,12.074],[8.915,12.076],[8.952,12.185],[8.91,12.301],[8.84,12.308],[8.758,12.293],[8.795,12.382],[8.764,12.42],[8.71,12.416],[8.687,12.483],[8.719,12.567],[8.556,12.603],[8.458,12.587],[8.387,12.47],[8.311,12.508],[8.289,12.6],[8.246,12.594]]]},"properties":{"shapeName":"Jigawa","shapeID":"27671186B1226853346294"}},{"type":"Feature","geometry":{"type":"Polygon","coordinates":[[[6.602,5.687],[6.639,5.739],[6.674,5.889],[6.725,6.012],[6.705,6.081],[6.755,6.121],[6.769,6.168],[6.723,6.266],[6.713,6.353],[6.669,6.501],[6.662,6.558],[6.808,6.58],[6.799,6.68],[6.861,6.753],[6.91,6.696],[7.017,6.706],[7.129,6.659],[7.109,6.593],[7.048,6.527],[7.032,6.442],[7.144,6.388],[7.16,6.303],[7.224,6.191],[7.229,6.128],[7.261,6.079],[7.309,6.079],[7.339,6.042],[7.318,5.999],[7.273,5.998],[7.261,5.939],[7.187,5.9],[7.06,5.931],[6.998,5.901],[6.948,5.839],[6.89,5.806],[6.872,5.744],[6.811,5.788],[6.751,5.75],[6.695,5.746],[6.669,5.69],[6.602,5.687]]]},"properties":{"shapeName":"Anambra","shapeID":"27671186B76680224160916"}},{"type":"Feature","geometry":{"type":"Polygon","coordinates":[[[7.751,11.371],[7.675,11.483],[7.711,11.549],[7.705,11.592],[7.767,11.629],[7.841,11.633],[7.888,11.707],[7.861,11.762],[7.865,11.873],[7.83,11.922],[7.829,11.969],[7.88,12.044],[7.855,12.147],[7.878,12.253],[7.865,12.281],[7.923,12.337],[8.055,12.417],[8.157,12.44],[8.181,12.562],[8.246,12.594],[8.289,12.6],[8.311,12.508],[8.387,12.47],[8.458,12.587],[8.556,12.603],[8.719,12.567],[8.687,12.483],[8.71,12.416],[8.764,12.42],[8.795,12.382],[8.758,12.293],[8.84,12.308],[8.91,12.301],[8.952,12.185],[8.915,12.076],[9.074,12.074],[9.085,12.027],[9.145,12.039],[9.199,12.083],[9.228,12.014],[9.187,11.835],[9.144,11.827],[9.142,11.759],[9.166,11.707],[9.226,11.736],[9.241,11.645],[9.36,11.561],[9.23,11.446],[9.232,11.406],[9.195,11.327],[9.085,11.315],[9.027,11.277],[8.926,11.18],[8.893,11.117],[8.818,11.097],[8.78,11.012],[8.79,10.948],[8.76,10.924],[8.746,10.857],[8.822,10.769],[8.855,10.707],[8.783,10.597],[8.711,10.543],[8.65,10.624],[8.594,10.645],[8.506,10.65],[8.481,10.716],[8.572,10.748],[8.563,10.816],[8.585,10.861],[8.571,10.922],[8.615,11.018],[8.607,11.071],[8.52,11.115],[8.509,11.159],[8.462,11.172],[8.434,11.227],[8.325,11.227],[8.207,11.319],[8.114,11.408],[8.143,11.42],[8.15,11.519],[8.001,11.492],[7.9,11.431],[7.879,11.386],[7.751,11.371]]]},"properties":{"shapeName":"Kano","shapeID":"27671186B50148357657004"}},{"type":"Feature","geometry":{"type":"Polygon","coordinates":[[[6.981,8.444],[7.08,8.443],[7.27,8.464],[7.365,8.488],[7.418,8.57],[7.496,8.654],[7.592,8.835],[7.589,9.129],[7.668,9.304],[7.724,9.329],[7.793,9.276],[7.919,9.317],[8.061,9.266],[8.087,9.231],[8.062,9.052],[8.138,9.036],[8.192,9.052],[8.233,9.105],[8.258,9.183],[8.346,9.194],[8.387,9.176],[8.474,9.073],[8.504,9.001],[8.533,9.004],[8.621,9.115],[8.658,9.208],[8.765,9.165],[8.76,9.105],[8.798,9.032],[8.924,9.016],[9.057,9.024],[9.072,8.945],[9.024,8.866],[8.95,8.836],[8.892,8.733],[9.019,8.51],[9.101,8.474],[9.132,8.429],[9.175,8.467],[9.212,8.457],[9.381,8.478],[9.47,8.431],[9.602,8.393],[9.617,8.372],[9.61,8.291],[9.483,8.306],[9.39,8.349],[9.363,8.341],[9.33,8.236],[9.412,8.177],[9.387,8.149],[9.415,8.062],[9.336,7.986],[9.179,7.908],[9.133,7.991],[9.062,8.074],[8.911,8.056],[8.781,8.075],[8.504,8.158],[8.427,8.112],[8.371,8.046],[8.348,7.928],[8.389,7.893],[8.421,7.774],[8.372,7.77],[8.16,7.86],[8.072,7.877],[7.973,7.939],[7.867,7.986],[7.677,8.014],[7.505,8.047],[7.393,8.044],[7.254,8.015],[7.073,7.943],[6.964,7.879],[6.953,7.918],[6.978,7.986],[6.971,8.03],[7.003,8.167],[6.965,8.265],[6.935,8.301],[6.981,8.444]]]},"properties":{"shapeName":"Nasarawa","shapeID":"27671186B74554005070963"}},{"type":"Feature","geometry":{"type":"Polygon","coordinates":[[[4.126,13.25],[4.214,13.264],[4.3,13.26],[4.374,13.201],[4.468,13.181],[4.513,13.137],[4.623,13.07],[4.683,13.079],[4.725,13.049],[4.661,12.959],[4.807,12.819],[4.77,12.789],[4.732,12.672],[4.795,12.575],[4.803,12.485],[4.75,12.421],[4.754,12.364],[4.63,12.433],[4.586,12.389],[4.593,12.347],[4.552,12.284],[4.552,12.098],[4.588,12.039],[4.551,11.892],[4.549,11.796],[4.436,11.711],[4.419,11.614],[4.523,11.53],[4.546,11.634],[4.667,11.668],[4.803,11.758],[4.899,11.709],[4.941,11.731],[5,11.748],[5.052,11.72],[5.295,11.774],[5.376,11.71],[5.44,11.709],[5.497,11.656],[5.58,11.675],[5.67,11.661],[5.705,11.688],[5.78,11.684],[5.819,11.648],[5.827,11.444],[5.934,11.437],[6.01,11.463],[6.08,11.388],[6.204,11.384],[6.191,11.334],[6.136,11.295],[6.106,11.183],[6.016,11.138],[5.978,11.167],[5.898,11.114],[5.8,11.083],[5.729,10.998],[5.557,10.947],[5.522,10.99],[5.447,10.983],[5.389,11.037],[5.404,11.147],[5.348,11.339],[5.25,11.309],[5.233,11.218],[5.017,11.251],[4.959,11.369],[4.898,11.387],[4.867,11.358],[4.712,11.297],[4.703,11.229],[4.746,11.148],[4.803,11.114],[4.909,11.082],[4.98,11.081],[5.041,11.052],[5.081,10.951],[5.025,10.89],[5.047,10.825],[5.109,10.796],[5.101,10.761],[4.908,10.69],[4.826,10.708],[4.796,10.629],[4.824,10.595],[4.819,10.507],[4.853,10.46],[4.932,10.44],[4.95,10.39],[4.947,10.285],[4.872,10.218],[4.794,10.261],[4.697,10.24],[4.647,10.205],[4.625,10.103],[4.53,10.101],[4.527,10.143],[4.567,10.223],[4.56,10.268],[4.491,10.314],[4.479,10.421],[4.51,10.535],[4.585,10.564],[4.691,10.663],[4.696,10.79],[4.72,10.859],[4.695,10.919],[4.6,10.889],[4.54,10.92],[4.45,10.886],[4.381,10.88],[4.339,10.903],[4.33,10.951],[4.277,10.954],[4.225,11.019],[4.1,11.026],[3.993,11.016],[3.933,10.943],[3.802,10.946],[3.77,10.92],[3.717,11.02],[3.731,11.087],[3.713,11.135],[3.67,11.143],[3.565,11.253],[3.486,11.313],[3.477,11.455],[3.511,11.525],[3.511,11.67],[3.614,11.7],[3.664,11.755],[3.632,11.825],[3.619,11.908],[3.672,11.976],[3.63,12.149],[3.666,12.207],[3.662,12.415],[3.652,12.486],[3.673,12.552],[3.953,12.749],[4.105,12.996],[4.143,13.182],[4.126,13.25]]]},"properties":{"shapeName":"Kebbi","shapeID":"27671186B53868438251790"}},{"type":"Feature","geometry":{"type":"Polygon","coordinates":[[[7.264,5.216],[7.232,5.195],[7.123,5.216],[7.04,5.25],[6.904,5.22],[6.827,5.252],[6.756,5.323],[6.763,5.41],[6.741,5.494],[6.639,5.493],[6.669,5.69],[6.695,5.746],[6.751,5.75],[6.811,5.788],[6.872,5.744],[6.89,5.806],[6.948,5.839],[6.998,5.901],[7.06,5.931],[7.187,5.9],[7.261,5.939],[7.285,5.918],[7.396,5.901],[7.386,5.861],[7.408,5.677],[7.432,5.609],[7.407,5.533],[7.322,5.405],[7.264,5.216]]]},"properties":{"shapeName":"Imo","shapeID":"27671186B8148656125930"}},{"type":"Feature","geometry":{"type":"Polygon","coordinates":[[[11.583,10.594],[11.6,10.534],[11.663,10.497],[11.655,10.456],[11.603,10.427],[11.552,10.369],[11.546,10.301],[11.59,10.283],[11.612,10.22],[11.696,10.188],[11.79,10.039],[11.836,10.034],[11.835,9.93],[11.803,9.832],[11.855,9.793],[11.817,9.741],[11.75,9.709],[11.634,9.627],[11.598,9.649],[11.563,9.605],[11.468,9.598],[11.43,9.55],[11.278,9.548],[11.227,9.569],[11.114,9.526],[11.076,9.551],[11.008,9.552],[10.969,9.615],[10.957,9.669],[10.982,9.775],[10.945,9.88],[10.858,9.956],[10.717,10.05],[10.738,10.121],[10.8,10.135],[10.863,10.268],[10.819,10.313],[10.835,10.4],[10.722,10.49],[10.662,10.491],[10.558,10.601],[10.497,10.687],[10.569,10.811],[10.652,10.881],[10.677,10.931],[10.641,10.961],[10.669,11.04],[10.738,11.101],[10.799,11.084],[10.937,11.096],[11.009,11.149],[10.982,11.179],[11.077,11.287],[11.092,11.226],[11.342,11.164],[11.374,11.102],[11.449,11.047],[11.53,10.935],[11.539,10.851],[11.515,10.695],[11.517,10.57],[11.583,10.594]]]},"properties":{"shapeName":"Gombe","shapeID":"27671186B90305463766462"}},{"type":"Feature","geometry":{"type":"Polygon","coordinates":[[[11.836,10.034],[11.921,10.025],[11.989,10.038],[12.019,10.067],[12.101,10.074],[12.089,10.143],[12.136,10.237],[12.213,10.281],[12.242,10.319],[12.379,10.35],[12.422,10.371],[12.557,10.395],[12.571,10.482],[12.652,10.439],[12.735,10.576],[12.875,10.574],[12.959,10.548],[13.052,10.464],[13.191,10.41],[13.228,10.443],[13.253,10.54],[13.233,10.558],[13.311,10.713],[13.336,10.8],[13.336,10.908],[13.383,10.878],[13.502,10.911],[13.577,10.948],[13.67,10.945],[13.751,10.914],[13.633,10.735],[13.573,10.667],[13.519,10.394],[13.452,10.154],[13.396,10.11],[13.318,10.1],[13.244,10.032],[13.286,9.971],[13.235,9.908],[13.26,9.752],[13.245,9.594],[13.219,9.543],[13.151,9.515],[13.049,9.507],[12.968,9.452],[12.906,9.341],[12.921,9.151],[12.942,9.063],[12.925,8.993],[12.844,8.969],[12.881,8.846],[12.879,8.75],[12.857,8.686],[12.817,8.65],[12.826,8.565],[12.755,8.572],[12.731,8.512],[12.681,8.467],[12.603,8.493],[12.586,8.465],[12.441,8.455],[12.33,8.419],[12.254,8.408],[12.237,8.327],[12.256,8.198],[12.21,8.132],[12.207,7.968],[12.096,7.826],[12.044,7.74],[12.025,7.661],[12.041,7.574],[11.853,7.391],[11.772,7.488],[11.763,7.541],[11.773,7.652],[11.727,7.719],[11.633,7.75],[11.651,7.857],[11.59,7.908],[11.541,7.892],[11.49,7.8],[11.412,7.898],[11.342,8.019],[11.363,8.064],[11.478,8.169],[11.546,8.246],[11.648,8.442],[11.73,8.471],[11.78,8.514],[11.789,8.641],[11.754,8.7],[11.827,8.739],[11.841,8.845],[11.872,8.947],[11.83,8.994],[11.707,9.074],[11.687,9.23],[11.648,9.305],[11.531,9.326],[11.526,9.408],[11.444,9.488],[11.43,9.55],[11.468,9.598],[11.563,9.605],[11.598,9.649],[11.634,9.627],[11.75,9.709],[11.817,9.741],[11.855,9.793],[11.803,9.832],[11.835,9.93],[11.836,10.034]]]},"properties":{"shapeName":"Adamawa","shapeID":"27671186B49737451005073"}},{"type":"Feature","geometry":{"type":"Polygon","coordinates":[[[12.43,13.073],[12.395,12.916],[12.409,12.86],[12.485,12.802],[12.497,12.665],[12.419,12.524],[12.377,12.52],[12.353,12.46],[12.287,12.425],[12.285,12.266],[12.25,12.213],[12.238,12.09],[12.281,11.995],[12.244,11.809],[12.196,11.658],[12.224,11.633],[12.275,11.694],[12.3,11.609],[12.374,11.55],[12.344,11.479],[12.202,11.357],[12.187,11.302],[12.102,11.237],[12.121,11.14],[12.168,11.079],[12.148,11.046],[12.035,11.044],[11.937,10.948],[11.799,10.938],[11.632,10.857],[11.647,10.834],[11.738,10.823],[11.767,10.706],[11.714,10.634],[11.583,10.594],[11.517,10.57],[11.515,10.695],[11.539,10.851],[11.53,10.935],[11.449,11.047],[11.374,11.102],[11.342,11.164],[11.092,11.226],[11.077,11.287],[10.982,11.179],[10.926,11.251],[10.91,11.331],[10.939,11.554],[10.921,11.718],[10.928,11.777],[10.905,11.827],[10.817,11.886],[10.823,12.109],[10.804,12.117],[10.789,12.275],[10.751,12.476],[10.651,12.529],[10.598,12.522],[10.599,12.706],[10.538,12.824],[10.475,12.79],[10.385,12.841],[10.305,12.861],[10.224,13.015],[9.988,12.956],[9.93,12.919],[9.858,12.82],[9.765,12.796],[9.662,12.834],[9.873,13.075],[9.945,13.122],[9.962,13.156],[10.173,13.27],[10.464,13.319],[10.645,13.375],[10.75,13.389],[10.932,13.369],[11.021,13.376],[11.106,13.361],[11.239,13.375],[11.452,13.377],[11.654,13.315],[11.82,13.273],[12.117,13.114],[12.202,13.127],[12.336,13.083],[12.43,13.073]]]},"properties":{"shapeName":"Yobe","shapeID":"27671186B69054806776702"}},{"type":"Feature","geometry":{"type":"Polygon","coordinates":[[[7.89,5.685],[7.915,5.655],[7.908,5.536],[7.986,5.371],[7.88,5.367],[7.865,5.418],[7.789,5.444],[7.749,5.516],[7.711,5.512],[7.701,5.436],[7.639,5.43],[7.625,5.365],[7.572,5.324],[7.543,5.258],[7.528,5.156],[7.547,5.088],[7.506,5.013],[7.46,4.978],[7.481,4.933],[7.495,4.828],[7.416,4.867],[7.271,4.873],[7.225,4.858],[7.156,4.884],[7.169,4.945],[7.241,4.994],[7.256,5.077],[7.293,5.173],[7.264,5.216],[7.322,5.405],[7.407,5.533],[7.432,5.609],[7.408,5.677],[7.386,5.861],[7.396,5.901],[7.285,5.918],[7.261,5.939],[7.273,5.998],[7.318,5.999],[7.339,6.042],[7.431,6.006],[7.53,6.006],[7.505,5.883],[7.527,5.844],[7.769,5.814],[7.804,5.745],[7.89,5.685]]]},"properties":{"shapeName":"Abia","shapeID":"27671186B83117616801018"}},{"type":"Feature","geometry":{"type":"Polygon","coordinates":[[[5.773,7.747],[5.716,7.701],[5.681,7.624],[5.625,7.582],[5.599,7.45],[5.504,7.316],[5.388,7.283],[5.358,7.296],[5.347,7.381],[5.32,7.441],[5.217,7.434],[5.049,7.457],[5.005,7.414],[4.952,7.448],[4.902,7.576],[4.864,7.623],[4.914,7.783],[4.911,7.85],[4.95,7.903],[5.031,7.977],[5.058,8.039],[5.142,8.062],[5.196,8.018],[5.332,8.01],[5.387,8.102],[5.498,8.111],[5.504,8.024],[5.577,8.071],[5.64,8.054],[5.668,8.002],[5.599,7.952],[5.614,7.866],[5.643,7.829],[5.729,7.828],[5.773,7.747]]]},"properties":{"shapeName":"Ekiti","shapeID":"27671186B91150779192485"}},{"type":"Feature","geometry":{"type":"Polygon","coordinates":[[[4.61,7.031],[4.516,7.023],[4.489,6.992],[4.376,6.995],[4.369,7.059],[4.298,7.091],[4.198,7.049],[4.171,7.171],[4.088,7.133],[4.094,7.228],[4.125,7.258],[4.111,7.327],[4.134,7.368],[4.154,7.569],[4.069,7.666],[4.076,7.825],[4.099,7.864],[4.147,7.85],[4.203,7.869],[4.191,7.91],[4.276,7.971],[4.328,7.935],[4.36,7.883],[4.433,7.892],[4.442,7.929],[4.557,7.981],[4.569,8.055],[4.622,8.076],[4.666,8.043],[4.721,8.064],[4.819,8.054],[4.854,8.096],[4.927,8.08],[4.995,8.03],[5.058,8.039],[5.031,7.977],[4.95,7.903],[4.911,7.85],[4.914,7.783],[4.864,7.623],[4.902,7.576],[4.952,7.448],[5.005,7.414],[4.99,7.378],[4.878,7.379],[4.755,7.361],[4.735,7.284],[4.747,7.223],[4.703,7.162],[4.635,7.113],[4.61,7.031]]]},"properties":{"shapeName":"Osun","shapeID":"27671186B37873222803025"}},{"type":"Feature","geometry":{"type":"Polygon","coordinates":[[[10.541,9.484],[10.489,9.553],[10.383,9.598],[10.261,9.687],[10.152,9.679],[10.103,9.72],[10.042,9.73],[9.973,9.7],[9.981,9.623],[9.839,9.601],[9.764,9.54],[9.648,9.522],[9.61,9.548],[9.569,9.473],[9.425,9.477],[9.397,9.531],[9.351,9.532],[9.304,9.572],[9.288,9.692],[9.224,9.683],[9.16,9.758],[9.219,9.773],[9.272,9.846],[9.232,9.862],[9.214,10.018],[9.128,10.059],[9.086,10.025],[8.977,9.987],[8.939,10.033],[8.968,10.103],[8.978,10.181],[8.93,10.215],[8.955,10.309],[8.936,10.349],[8.818,10.38],[8.749,10.441],[8.777,10.479],[8.783,10.597],[8.855,10.707],[8.822,10.769],[8.746,10.857],[8.76,10.924],[8.79,10.948],[8.78,11.012],[8.818,11.097],[8.893,11.117],[8.926,11.18],[9.027,11.277],[9.085,11.315],[9.195,11.327],[9.287,11.349],[9.351,11.343],[9.412,11.3],[9.498,11.278],[9.512,11.313],[9.609,11.315],[9.596,11.248],[9.684,11.222],[9.825,11.279],[9.883,11.164],[9.889,11.094],[9.855,11.077],[9.863,11.006],[9.986,10.958],[10.088,10.99],[10.134,10.948],[10.22,10.947],[10.154,11.014],[10.189,11.082],[10.27,11.088],[10.336,11.143],[10.358,11.208],[10.279,11.203],[10.19,11.222],[10.084,11.27],[9.999,11.265],[9.885,11.357],[9.878,11.448],[9.801,11.443],[9.788,11.505],[9.831,11.54],[9.821,11.672],[9.78,11.737],[9.713,11.721],[9.64,11.733],[9.708,11.85],[9.834,11.89],[9.883,11.933],[10.175,12.046],[10.152,12.09],[10.17,12.165],[10.148,12.238],[10.208,12.354],[10.254,12.391],[10.258,12.46],[10.339,12.441],[10.381,12.464],[10.459,12.441],[10.606,12.489],[10.598,12.522],[10.651,12.529],[10.751,12.476],[10.789,12.275],[10.804,12.117],[10.823,12.109],[10.817,11.886],[10.905,11.827],[10.928,11.777],[10.921,11.718],[10.939,11.554],[10.91,11.331],[10.926,11.251],[10.982,11.179],[11.009,11.149],[10.937,11.096],[10.799,11.084],[10.738,11.101],[10.669,11.04],[10.641,10.961],[10.677,10.931],[10.652,10.881],[10.569,10.811],[10.497,10.687],[10.558,10.601],[10.662,10.491],[10.722,10.49],[10.835,10.4],[10.819,10.313],[10.863,10.268],[10.8,10.135],[10.738,10.121],[10.717,10.05],[10.858,9.956],[10.945,9.88],[10.982,9.775],[10.957,9.669],[10.969,9.615],[10.917,9.555],[10.774,9.447],[10.618,9.463],[10.541,9.484]]]},"properties":{"shapeName":"Bauchi","shapeID":"27671186B7584771598694"}},{"type":"Feature","geometry":{"type":"Polygon","coordinates":[[[7.379,9.336],[7.22,9.114],[7.015,9.269],[6.788,9.27],[6.78,8.58],[6.785,8.458],[6.828,8.458],[6.838,8.397],[6.772,8.335],[6.761,8.273],[6.684,8.213],[6.599,8.324],[6.453,8.448],[6.398,8.629],[6.303,8.728],[6.209,8.732],[6.033,8.759],[5.928,8.743],[5.796,8.742],[5.728,8.82],[5.642,8.835],[5.54,8.931],[5.37,8.996],[5.323,8.992],[5.209,9.035],[5.159,9.107],[4.997,9.207],[4.828,9.134],[4.785,9.135],[4.752,9.18],[4.738,9.269],[4.639,9.308],[4.61,9.362],[4.501,9.44],[4.444,9.51],[4.351,9.588],[4.282,9.694],[4.171,9.82],[4.153,9.862],[4.022,9.857],[4.002,9.907],[3.935,9.928],[3.949,9.991],[3.864,10.05],[3.799,10.071],[3.731,10.068],[3.684,10.157],[3.582,10.275],[3.637,10.412],[3.706,10.447],[3.794,10.406],[3.855,10.585],[3.849,10.683],[3.754,10.794],[3.77,10.92],[3.802,10.946],[3.933,10.943],[3.993,11.016],[4.1,11.026],[4.225,11.019],[4.277,10.954],[4.33,10.951],[4.339,10.903],[4.381,10.88],[4.45,10.886],[4.54,10.92],[4.6,10.889],[4.695,10.919],[4.72,10.859],[4.696,10.79],[4.691,10.663],[4.585,10.564],[4.51,10.535],[4.479,10.421],[4.491,10.314],[4.56,10.268],[4.567,10.223],[4.527,10.143],[4.53,10.101],[4.625,10.103],[4.647,10.205],[4.697,10.24],[4.794,10.261],[4.872,10.218],[4.947,10.285],[4.95,10.39],[4.932,10.44],[4.853,10.46],[4.819,10.507],[4.824,10.595],[4.796,10.629],[4.826,10.708],[4.908,10.69],[5.101,10.761],[5.109,10.796],[5.047,10.825],[5.025,10.89],[5.081,10.951],[5.041,11.052],[4.98,11.081],[4.909,11.082],[4.803,11.114],[4.746,11.148],[4.703,11.229],[4.712,11.297],[4.867,11.358],[4.898,11.387],[4.959,11.369],[5.017,11.251],[5.233,11.218],[5.25,11.309],[5.348,11.339],[5.404,11.147],[5.389,11.037],[5.447,10.983],[5.522,10.99],[5.557,10.947],[5.729,10.998],[5.8,11.083],[5.898,11.114],[5.978,11.167],[6.016,11.138],[6.046,11.054],[6.163,11.043],[6.267,10.966],[6.209,10.902],[6.165,10.893],[6.123,10.845],[6.099,10.702],[6.137,10.679],[6.115,10.605],[6.158,10.501],[6.173,10.381],[6.236,10.385],[6.322,10.444],[6.315,10.48],[6.402,10.574],[6.495,10.616],[6.54,10.545],[6.647,10.593],[6.731,10.596],[6.72,10.644],[6.803,10.643],[6.842,10.573],[6.913,10.538],[6.954,10.482],[6.923,10.382],[7.02,10.354],[7.051,10.317],[7.01,10.25],[6.97,10.233],[6.885,10.151],[6.901,10.076],[6.952,10.048],[7.065,10.043],[7.105,10.027],[7.254,10.039],[7.278,10.016],[7.297,9.87],[7.293,9.811],[7.205,9.758],[7.276,9.69],[7.306,9.628],[7.234,9.565],[7.251,9.521],[7.201,9.46],[7.232,9.318],[7.379,9.336]]]},"properties":{"shapeName":"Niger","shapeID":"27671186B79778155682183"}},{"type":"Feature","geometry":{"type":"Polygon","coordinates":[[[7.724,9.329],[7.647,9.409],[7.542,9.387],[7.509,9.355],[7.379,9.336],[7.232,9.318],[7.201,9.46],[7.251,9.521],[7.234,9.565],[7.306,9.628],[7.276,9.69],[7.205,9.758],[7.293,9.811],[7.297,9.87],[7.278,10.016],[7.254,10.039],[7.105,10.027],[7.065,10.043],[6.952,10.048],[6.901,10.076],[6.885,10.151],[6.97,10.233],[7.01,10.25],[7.051,10.317],[7.02,10.354],[6.923,10.382],[6.954,10.482],[6.913,10.538],[6.842,10.573],[6.803,10.643],[6.72,10.644],[6.731,10.596],[6.647,10.593],[6.54,10.545],[6.495,10.616],[6.402,10.574],[6.315,10.48],[6.322,10.444],[6.236,10.385],[6.173,10.381],[6.158,10.501],[6.115,10.605],[6.137,10.679],[6.099,10.702],[6.123,10.845],[6.165,10.893],[6.209,10.902],[6.267,10.966],[6.337,11.021],[6.392,11.034],[6.437,11.008],[6.533,11.048],[6.577,11.022],[6.657,11.052],[6.687,11.092],[6.689,11.204],[6.703,11.239],[6.767,11.272],[6.771,11.32],[6.889,11.384],[7.006,11.362],[7.009,11.294],[6.968,11.245],[7.077,11.195],[7.152,11.129],[7.201,11.153],[7.195,11.258],[7.227,11.279],[7.358,11.264],[7.392,11.375],[7.473,11.376],[7.578,11.315],[7.608,11.272],[7.706,11.31],[7.751,11.371],[7.879,11.386],[7.9,11.431],[8.001,11.492],[8.15,11.519],[8.143,11.42],[8.114,11.408],[8.207,11.319],[8.325,11.227],[8.434,11.227],[8.462,11.172],[8.509,11.159],[8.52,11.115],[8.607,11.071],[8.615,11.018],[8.571,10.922],[8.585,10.861],[8.563,10.816],[8.572,10.748],[8.481,10.716],[8.506,10.65],[8.594,10.645],[8.65,10.624],[8.711,10.543],[8.783,10.597],[8.777,10.479],[8.749,10.441],[8.818,10.38],[8.799,10.303],[8.734,10.275],[8.686,10.211],[8.672,10.146],[8.68,10.005],[8.635,9.867],[8.644,9.775],[8.599,9.728],[8.555,9.581],[8.578,9.499],[8.648,9.396],[8.695,9.378],[8.694,9.322],[8.658,9.208],[8.621,9.115],[8.533,9.004],[8.504,9.001],[8.474,9.073],[8.387,9.176],[8.346,9.194],[8.258,9.183],[8.233,9.105],[8.192,9.052],[8.138,9.036],[8.062,9.052],[8.087,9.231],[8.061,9.266],[7.919,9.317],[7.793,9.276],[7.724,9.329]]]},"properties":{"shapeName":"Kaduna","shapeID":"27671186B54051914323789"}},{"type":"Feature","geometry":{"type":"Polygon","coordinates":[[[6.861,6.753],[6.897,6.792],[6.952,6.808],[6.991,6.785],[7.081,6.8],[7.176,6.896],[7.21,6.904],[7.241,6.971],[7.385,7.052],[7.432,7.102],[7.502,7.069],[7.531,7.032],[7.578,6.933],[7.62,6.919],[7.658,6.868],[7.819,6.892],[7.888,6.854],[7.886,6.794],[7.856,6.7],[7.818,6.638],[7.691,6.638],[7.742,6.494],[7.751,6.386],[7.709,6.278],[7.733,6.227],[7.726,6.115],[7.669,6.064],[7.676,6.01],[7.711,5.971],[7.692,5.925],[7.573,5.969],[7.53,6.006],[7.431,6.006],[7.339,6.042],[7.309,6.079],[7.261,6.079],[7.229,6.128],[7.224,6.191],[7.16,6.303],[7.144,6.388],[7.032,6.442],[7.048,6.527],[7.109,6.593],[7.129,6.659],[7.017,6.706],[6.91,6.696],[6.861,6.753]]]},"properties":{"shapeName":"Enugu","shapeID":"27671186B90910891533368"}},{"type":"Feature","geometry":{"type":"Polygon","coordinates":[[[9.598,6.5],[9.622,6.664],[9.646,6.739],[9.646,6.895],[9.738,7.078],[9.824,7.172],[9.841,7.28],[9.883,7.414],[9.885,7.508],[9.846,7.574],[9.747,7.655],[9.643,7.8],[9.561,7.839],[9.387,7.845],[9.19,7.81],[9.124,7.827],[9.179,7.908],[9.336,7.986],[9.415,8.062],[9.387,8.149],[9.412,8.177],[9.33,8.236],[9.363,8.341],[9.39,8.349],[9.483,8.306],[9.61,8.291],[9.617,8.372],[9.664,8.383],[9.757,8.367],[9.891,8.448],[10.052,8.592],[10.116,8.673],[10.249,8.808],[10.325,8.857],[10.42,8.944],[10.464,8.963],[10.597,8.976],[10.627,9.019],[10.636,9.119],[10.58,9.246],[10.56,9.39],[10.566,9.465],[10.541,9.484],[10.618,9.463],[10.774,9.447],[10.917,9.555],[10.969,9.615],[11.008,9.552],[11.076,9.551],[11.114,9.526],[11.227,9.569],[11.278,9.548],[11.43,9.55],[11.444,9.488],[11.526,9.408],[11.531,9.326],[11.648,9.305],[11.687,9.23],[11.707,9.074],[11.83,8.994],[11.872,8.947],[11.841,8.845],[11.827,8.739],[11.754,8.7],[11.789,8.641],[11.78,8.514],[11.73,8.471],[11.648,8.442],[11.546,8.246],[11.478,8.169],[11.363,8.064],[11.342,8.019],[11.412,7.898],[11.49,7.8],[11.541,7.892],[11.59,7.908],[11.651,7.857],[11.633,7.75],[11.727,7.719],[11.773,7.652],[11.763,7.541],[11.772,7.488],[11.853,7.391],[11.799,7.297],[11.764,7.284],[11.882,7.132],[11.864,7.085],[11.763,7.003],[11.638,6.944],[11.587,6.892],[11.555,6.821],[11.589,6.759],[11.555,6.654],[11.518,6.607],[11.435,6.586],[11.413,6.484],[11.34,6.441],[11.141,6.434],[11.117,6.444],[11.062,6.596],[11.082,6.698],[11.019,6.779],[10.939,6.78],[10.883,6.828],[10.865,6.923],[10.842,6.958],[10.77,6.962],[10.62,7.054],[10.56,7.022],[10.513,6.878],[10.269,6.875],[10.205,6.901],[10.165,7.021],[9.875,6.776],[9.796,6.802],[9.709,6.521],[9.638,6.523],[9.598,6.5]]]},"properties":{"shapeName":"Taraba","shapeID":"27671186B83252759475924"}},{"type":"Feature","geometry":{"type":"Polygon","coordinates":[[[8.295,6.679],[8.34,6.575],[8.457,6.428],[8.404,6.366],[8.392,6.307],[8.418,6.261],[8.302,6.108],[8.287,6.017],[8.215,6.012],[8.114,5.938],[8.065,5.944],[8.053,5.986],[7.986,5.982],[7.988,5.885],[7.932,5.822],[7.89,5.685],[7.804,5.745],[7.769,5.814],[7.527,5.844],[7.505,5.883],[7.53,6.006],[7.573,5.969],[7.692,5.925],[7.711,5.971],[7.676,6.01],[7.669,6.064],[7.726,6.115],[7.733,6.227],[7.709,6.278],[7.751,6.386],[7.742,6.494],[7.691,6.638],[7.818,6.638],[7.878,6.562],[7.945,6.54],[7.987,6.611],[7.974,6.711],[8.032,6.732],[8.099,6.707],[8.144,6.725],[8.173,6.773],[8.241,6.792],[8.295,6.679]]]},"properties":{"shapeName":"Ebonyi","shapeID":"27671186B90886723034258"}}]}